EROS C3                 
1 54880U 22179A   26193.47061870  .00003214  00000+0  17460-3 0  9990
2 54880 139.3345 149.3314 0006885 160.7729 199.3339 15.11019809196153
