{"fetched_at":"2026-07-12T17:32:38.993Z","source":"https://celestrak.org/NORAD/elements/gp.php?NAME=EROS&FORMAT=JSON","constellation":"eros","records":[{"OBJECT_NAME":"EROS C3","OBJECT_ID":"2022-179A","EPOCH":"2026-07-12T11:17:41.455680","CLASSIFICATION_TYPE":"U","MEAN_MOTION":15.11019809,"ECCENTRICITY":0.0006885,"INCLINATION":139.3345,"RA_OF_ASC_NODE":149.3314,"ARG_OF_PERICENTER":160.7729,"MEAN_ANOMALY":199.3339,"EPHEMERIS_TYPE":0,"NORAD_CAT_ID":54880,"ELEMENT_SET_NO":999,"REV_AT_EPOCH":19615,"BSTAR":0.0001746,"MEAN_MOTION_DOT":0.00003214,"MEAN_MOTION_DDOT":0}]}
